NORAD_CAT_ID,OBJECT_NAME,OBJECT_TYPE,EPOCH,MEAN_MOTION,ECCENTRICITY,INCLINATION,RA_OF_ASC_NODE,ARG_OF_PERICENTER,MEAN_ANOMALY,BSTAR,MEAN_MOTION_DOT,MEAN_MOTION_DDOT,TLE_LINE0,TLE_LINE1,TLE_LINE2,SEMIMAJOR_AXIS,PERIOD,APOGEE,PERIGEE,DECAYED
53775.0,STARLINK-4722,PAYLOAD,2023-08-02 00:25:05,15.08837175,0.0001121,53.2154,222.087,89.0338,271.0782,9.7705e-06,-1.32e-06,0.0,0 STARLINK-4722,1 53775U 22111C   23214.01742656 -.00000132  00000-0  97705-5 0  9997,2 53775  53.2154 222.0870 0001121  89.0338 271.0782 15.08837175 49360,6917.889,95.438,540.53,538.979,0.0
53775.0,STARLINK-4722,PAYLOAD,2023-08-03 06:37:24,15.08845263,0.0001383,53.2161,216.4362,121.3764,238.7364,3.2599e-05,2.31e-06,0.0,0 STARLINK-4722,1 53775U 22111C   23215.27598108  .00000231  00000-0  32599-4 0  9995,2 53775  53.2161 216.4362 0001383 121.3764 238.7364 15.08845263 49558,6917.864,95.437,540.686,538.773,0.0
53775.0,STARLINK-4722,PAYLOAD,2023-08-04 03:17:26,15.08834808,0.0001288,53.2172,212.573,90.233,269.881,8.2526e-05,1.026e-05,0.0,0 STARLINK-4722,1 53775U 22111C   23216.13710839  .00001026  00000-0  82526-4 0  9996,2 53775  53.2172 212.5730 0001288  90.2330 269.8810 15.08834808 49681,6917.896,95.438,540.652,538.87,0.0
53775.0,STARLINK-4722,PAYLOAD,2023-08-05 09:29:45,15.08841129,0.0001303,53.2168,206.9201,99.1264,260.9875,3.7747e-05,3.13e-06,0.0,0 STARLINK-4722,1 53775U 22111C   23217.39566728  .00000313  00000-0  37747-4 0  9994,2 53775  53.2168 206.9201 0001303  99.1264 260.9875 15.08841129 49876,6917.877,95.437,540.643,538.841,0.0
53775.0,STARLINK-4722,PAYLOAD,2023-08-06 15:42:05,15.08837395,0.0001212,53.2162,201.2702,90.4733,269.6398,5.2287e-05,5.44e-06,0.0,0 STARLINK-4722,1 53775U 22111C   23218.65423020  .00000544  00000-0  52287-4 0  9993,2 53775  53.2162 201.2702 0001212  90.4733 269.6398 15.08837395 50067,6917.888,95.438,540.592,538.915,0.0
53775.0,STARLINK-4722,PAYLOAD,2023-08-07 02:49:48,15.08832814,0.0001494,53.2173,199.1909,105.3872,254.7286,-7.7773e-06,-4.12e-06,0.0,0 STARLINK-4722,1 53775U 22111C   23219.11791807 -.00000412  00000-0 -77773-5 0  9990,2 53775  53.2173 199.1909 0001494 105.3872 254.7286 15.08832814 50135,6917.902,95.438,540.801,538.734,0.0
53775.0,STARLINK-4722,PAYLOAD,2023-08-07 21:54:25,15.08839872,0.0001207,53.2164,195.6223,98.4818,261.6311,6.2073e-05,7e-06,0.0,0 STARLINK-4722,1 53775U 22111C   23219.91279301  .00000700  00000-0  62073-4 0  9992,2 53775  53.2164 195.6223 0001207  98.4818 261.6311 15.08839872 50259,6917.881,95.438,540.581,538.911,0.0
53775.0,STARLINK-4722,PAYLOAD,2023-08-08 09:02:06,15.08849843,0.0001197,53.2162,193.5404,98.4855,261.6273,9.811e-05,1.274e-05,0.0,0 STARLINK-4722,1 53775U 22111C   23220.37646600  .00001274  00000-0  98110-4 0  9992,2 53775  53.2162 193.5404 0001197  98.4855 261.6273 15.08849843 50328,6917.85,95.437,540.543,538.887,0.0
53775.0,STARLINK-4722,PAYLOAD,2023-08-08 21:45:12,15.0883566,0.0001209,53.2161,191.1615,95.0361,265.0769,0.00014003,1.941e-05,0.0,0 STARLINK-4722,1 53775U 22111C   23220.90639489  .00001941  00000-0  14003-3 0  9997,2 53775  53.2161 191.1615 0001209  95.0361 265.0769 15.08835660 50403,6917.894,95.438,540.595,538.922,0.0
53775.0,STARLINK-4722,PAYLOAD,2023-08-10 07:08:18,15.08839552,0.000122,53.2152,184.9167,83.1069,277.0062,2.5767e-05,1.22e-06,0.0,0 STARLINK-4722,1 53775U 22111C   23222.29743784  .00000122  00000-0  25767-4 0  9995,2 53775  53.2152 184.9167 0001220  83.1069 277.0062 15.08839552 50617,6917.882,95.438,540.591,538.903,0.0
53775.0,STARLINK-4722,PAYLOAD,2023-08-11 06:59:05,15.08844652,0.0001249,53.2162,180.4555,95.9567,264.1568,8.7172e-05,1.1e-05,0.0,0 STARLINK-4722,1 53775U 22111C   23223.29103261  .00001100  00000-0  87172-4 0  9991,2 53775  53.2162 180.4555 0001249  95.9567 264.1568 15.08844652 50766,6917.866,95.437,540.595,538.867,0.0
53775.0,STARLINK-4722,PAYLOAD,2023-08-12 02:03:43,15.08835021,0.0001276,53.2161,176.8866,95.6283,264.4855,8.8658e-05,1.123e-05,0.0,0 STARLINK-4722,1 53775U 22111C   23224.08592121  .00001123  00000-0  88658-4 0  9991,2 53775  53.2161 176.8866 0001276  95.6283 264.4855 15.08835021 50886,6917.896,95.438,540.643,538.878,0.0
53775.0,STARLINK-4722,PAYLOAD,2023-08-13 03:29:52,15.08849385,0.0001263,53.2164,172.1295,90.3129,269.8008,0.00011674,1.571e-05,0.0,0 STARLINK-4722,1 53775U 22111C   23225.14575095  .00001571  00000-0  11674-3 0  9990,2 53775  53.2164 172.1295 0001263  90.3129 269.8008 15.08849385 51047,6917.852,95.437,540.59,538.843,0.0
53775.0,STARLINK-4722,PAYLOAD,2023-08-14 03:20:41,15.08835651,0.0001321,53.2167,167.67,88.1614,271.9529,6.2438e-08,-2.87e-06,0.0,0 STARLINK-4722,1 53775U 22111C   23226.13936415 -.00000287  00000-0  62438-7 0  9999,2 53775  53.2167 167.6700 0001321  88.1614 271.9529 15.08835651 51198,6917.894,95.438,540.673,538.845,0.0
53775.0,STARLINK-4722,PAYLOAD,2023-08-15 01:36:06,15.08782901,0.0002003,53.2172,163.5065,93.2548,266.8673,0.00073354,0.00011387,0.0,0 STARLINK-4722,1 53775U 22111C   23227.06673643  .00011387  00000-0  73354-3 0  9990,2 53775  53.2172 163.5065 0002003  93.2548 266.8673 15.08782901 51332,6918.055,95.441,541.306,538.534,0.0
53775.0,STARLINK-4722,PAYLOAD,2023-08-15 04:46:50,15.08849952,0.0001395,53.2172,162.9117,92.2961,267.8191,-9.1813e-05,-1.749e-05,0.0,0 STARLINK-4722,1 53775U 22111C   23227.19919939 -.00001749  00000-0 -91813-4 0  9999,2 53775  53.2172 162.9117 0001395  92.2961 267.8191 15.08849952 51352,6917.85,95.437,540.68,538.75,0.0
53775.0,STARLINK-4722,PAYLOAD,2023-08-16 03:02:14,15.08841515,0.0001441,53.2172,158.7491,92.0165,268.0992,9.8014e-05,1.272e-05,0.0,0 STARLINK-4722,1 53775U 22111C   23228.12656101  .00001272  00000-0  98014-4 0  9991,2 53775  53.2172 158.7491 0001441  92.0165 268.0992 15.08841515 51490,6917.876,95.437,540.738,538.744,0.0
53775.0,STARLINK-4722,PAYLOAD,2023-08-17 04:28:25,15.08839633,0.0001356,53.2167,153.9909,95.265,264.8497,6.9769e-06,-1.77e-06,0.0,0 STARLINK-4722,1 53775U 22111C   23229.18640615 -.00000177  00000-0  69769-5 0  9991,2 53775  53.2167 153.9909 0001356  95.2650 264.8497 15.08839633 51654,6917.882,95.438,540.685,538.808,0.0
53775.0,STARLINK-4722,PAYLOAD,2023-08-18 01:08:25,15.08848746,0.0001297,53.2165,150.1235,98.6832,261.4307,4.2497e-05,3.89e-06,0.0,0 STARLINK-4722,1 53775U 22111C   23230.04751798  .00000389  00000-0  42497-4 0  9995,2 53775  53.2165 150.1235 0001297  98.6832 261.4307 15.08848746 51788,6917.854,95.437,540.616,538.821,0.0
53775.0,STARLINK-4722,PAYLOAD,2023-08-18 18:37:40,15.08837049,0.0001386,53.2176,146.8531,96.9817,263.1332,1.2333e-06,-2.68e-06,0.0,0 STARLINK-4722,1 53775U 22111C   23230.77616665 -.00000268  00000-0  12333-5 0  9992,2 53775  53.2176 146.8531 0001386  96.9817 263.1332 15.08837049 51897,6917.889,95.438,540.713,538.796,0.0
53775.0,STARLINK-4722,PAYLOAD,2023-08-19 04:09:59,15.08842998,0.000133,53.2177,145.0691,88.0105,272.104,6.5143e-05,7.49e-06,0.0,0 STARLINK-4722,1 53775U 22111C   23231.17360164  .00000749  00000-0  65143-4 0  9996,2 53775  53.2177 145.0691 0001330  88.0105 272.1040 15.08842998 51959,6917.871,95.437,540.656,538.816,0.0
53775.0,STARLINK-4722,PAYLOAD,2023-08-19 18:28:28,15.08833205,0.0001574,53.2182,142.3948,72.7961,287.3204,-3.2033e-05,-7.98e-06,0.0,0 STARLINK-4722,1 53775U 22111C   23231.76977329 -.00000798  00000-0 -32033-4 0  9996,2 53775  53.2182 142.3948 0001574  72.7961 287.3204 15.08833205 52042,6917.901,95.438,540.855,538.677,0.0
53775.0,STARLINK-4722,PAYLOAD,2023-08-20 04:00:47,15.08837206,0.0001779,53.2185,140.6095,75.6179,284.501,1.3158e-05,-7.9e-07,0.0,0 STARLINK-4722,1 53775U 22111C   23232.16721092 -.00000079  00000-0  13158-4 0  9993,2 53775  53.2185 140.6095 0001779  75.6179 284.5010 15.08837206 52105,6917.889,95.438,540.985,538.523,0.0
53775.0,STARLINK-4722,PAYLOAD,2023-08-21 02:16:10,15.08845465,0.0001283,53.2173,136.4476,84.896,275.2178,0.00011984,1.62e-05,0.0,0 STARLINK-4722,1 53775U 22111C   23233.09456306  .00001620  00000-0  11984-3 0  9995,2 53775  53.2173 136.4476 0001283  84.8960 275.2178 15.08845465 52241,6917.864,95.437,540.616,538.841,0.0
53775.0,STARLINK-4722,PAYLOAD,2023-08-22 02:06:57,15.08841914,0.0001332,53.2174,131.9874,93.2741,266.8404,0.000104,1.368e-05,0.0,0 STARLINK-4722,1 53775U 22111C   23234.08816844  .00001368  00000-0  10400-3 0  9993,2 53775  53.2174 131.9874 0001332  93.2741 266.8404 15.08841914 52399,6917.875,95.437,540.661,538.818,0.0
53775.0,STARLINK-4722,PAYLOAD,2023-08-23 01:57:45,15.08837082,0.0001395,53.2181,127.5252,88.1937,271.9215,4.4194e-05,4.15e-06,0.0,0 STARLINK-4722,1 53775U 22111C   23235.08177422  .00000415  00000-0  44194-4 0  9996,2 53775  53.2181 127.5252 0001395  88.1937 271.9215 15.08837082 52542,6917.889,95.438,540.719,538.789,0.0
53775.0,STARLINK-4722,PAYLOAD,2023-08-24 01:48:32,15.08837187,0.0001319,53.2175,123.0642,95.5376,264.5766,2.2307e-05,6.7e-07,0.0,0 STARLINK-4722,1 53775U 22111C   23236.07537704  .00000067  00000-0  22307-4 0  9994,2 53775  53.2175 123.0642 0001319  95.5376 264.5766 15.08837187 53506,6917.889,95.438,540.666,538.842,0.0
53775.0,STARLINK-4722,PAYLOAD,2023-08-25 01:39:18,15.08845419,0.0001263,53.2171,118.6041,96.3925,263.7211,0.00012698,1.734e-05,0.0,0 STARLINK-4722,1 53775U 22111C   23237.06896878  .00001734  00000-0  12698-3 0  9997,2 53775  53.2171 118.6041 0001263  96.3925 263.7211 15.08845419 52841,6917.864,95.437,540.603,538.855,0.0
53775.0,STARLINK-4722,PAYLOAD,2023-08-25 20:43:57,15.08838941,0.0001138,53.2167,115.0361,103.0317,257.0802,2.9654e-05,1.84e-06,0.0,0 STARLINK-4722,1 53775U 22111C   23237.86385554  .00000184  00000-0  29654-4 0  9998,2 53775  53.2167 115.0361 0001138 103.0317 257.0802 15.08838941 53771,6917.884,95.438,540.536,538.961,0.0
53775.0,STARLINK-4722,PAYLOAD,2023-08-26 01:30:06,15.08833883,0.0001327,53.2166,114.1456,84.0599,276.0545,0.00017997,2.577e-05,0.0,0 STARLINK-4722,1 53775U 22111C   23238.06257542  .00002577  00000-0  17997-3 0  9990,2 53775  53.2166 114.1456 0001327  84.0599 276.0545 15.08833883 52993,6917.899,95.438,540.682,538.846,0.0
